SUOMI NPP               
1 37849U 11061A   26191.81236553  .00000022  00000+0  31666-4 0  9991
2 37849  98.7956 132.5276 0000589 244.2908 115.8207 14.19522097761798
YAOGAN-12               
1 37875U 11066B   26191.86073207  .00003381  00000+0  13054-3 0  9996
2 37875  97.1138 229.3173 0010768 135.3147 224.8962 15.26865833815659
BEIDOU-2 M4             
1 38251U 12018B   26191.21022507 -.00000069  00000+0  00000+0 0  9993
2 38251  55.6367 303.3120 0012086 272.7348  87.1429  1.86229687 96370
ARIRANG-3 (KOMPSAT-3)   
1 38338U 12025B   26191.84638171  .00000217  00000+0  52277-4 0  9998
2 38338  98.1182 148.8999 0006459  50.1735 310.0034 14.62226763754803
METOP-B                 
1 38771U 12049A   26191.84095936  .00000040  00000+0  38330-4 0  9999
2 38771  98.6492 242.8668 0001047 283.1215  76.9845 14.21445572716622
SJ-9A                   
1 38860U 12056A   26191.80746374  .00000541  00000+0  68339-4 0  9999
2 38860  97.6725 162.9072 0025583 176.0622 184.0799 14.85523183703094
COSMOS 2484 (RODNIK-S 6)
1 39059U 13001C   26191.81115591 -.00000071  00000+0 -58148-3 0  9999
2 39059  82.5003 207.2048 0025837 345.3383  14.6945 12.42939777611494
SARAL                   
1 39086U 13009A   26191.78310834  .00000053  00000+0  35264-4 0  9993
2 39086  98.5554  18.0519 0001431 178.2675 181.8514 14.32895038698984
STRAND-1                
1 39090U 13009E   26191.44882477  .00000176  00000+0  73431-4 0  9992
2 39090  98.3931  11.1117 0009149 154.2343 205.9301 14.37177134700402
BRITE-AUSTRIA           
1 39091U 13009F   26190.98422785  .00000106  00000+0  50637-4 0  9999
2 39091  98.4005   9.8568 0010453 165.5592 194.5896 14.36551135700320
GAOFEN-1                
1 39150U 13018A   26191.84945578  .00000408  00000+0  65656-4 0  9993
2 39150  97.9087 263.4355 0016688 185.1035 175.0007 14.76516381711731
NEE-01 PEGASO           
1 39151U 13018B   26190.63966526  .00001233  00000+0  12199-3 0  9996
2 39151  98.1250 335.5366 0013875  90.6498 269.6310 14.93776228714050
PROBA-V                 
1 39159U 13021A   26191.38335907  .00000058  00000+0  43640-4 0  9994
2 39159  98.3602 168.8465 0005378  71.1313 289.0449 14.23602924684416
ARIRANG-5 (KOMPSAT-5)   
1 39227U 13042A   26191.84299422  .00001137  00000+0  85489-4 0  9991
2 39227  97.6221  18.2117 0005564  69.2400 290.9422 15.04521627707413
GONETS-M 5              
1 39249U 13048A   26191.78098447  .00000056  00000+0  33234-3 0  9997
2 39249  82.4845 328.6727 0017183 158.9244 201.2547 12.42892697581812
GONETS-M 7              
1 39251U 13048C   26191.82400856  .00000034  00000+0  17228-3 0  9997
2 39251  82.4912 331.5805 0017963 160.0995 200.0789 12.42915488581777
FENGYUN 3C              
1 39260U 13052A   26191.86073601  .00000021  00000+0  31801-4 0  9990
2 39260  98.4994 164.6503 0013849 319.2122  40.8015 14.15760192661912
CASSIOPE                
1 39265U 13055A   26191.76298473  .00025507 -53017-6  27356-3 0  9992
2 39265  80.9135  38.0430 0283963 342.9101  16.2710 15.27219864671266
APRIZESAT 7             
1 39416U 13066A   26191.70055682  .00000692  00000+0  73716-4 0  9995
2 39416  97.7720 144.5844 0036922 131.7258 228.7128 14.91613380684730
ZACUBE-1 (TSHEPISOSAT)  
1 39417U 13066B   26191.46915967  .00001650  00000+0  13060-3 0  9990
2 39417  97.8014 153.9218 0043741 170.3489 189.8585 15.01316108684227
APRIZESAT 8             
1 39425U 13066K   26191.27908036  .00000504  00000+0  60493-4 0  9997
2 39425  97.8227 138.4264 0045089 208.2637 151.6132 14.87691705683107
