OBJECT_NAME,OBJECT_ID,EPOCH,MEAN_MOTION,ECCENTRICITY,INCLINATION,RA_OF_ASC_NODE,ARG_OF_PERICENTER,MEAN_ANOMALY,EPHEMERIS_TYPE,CLASSIFICATION_TYPE,NORAD_CAT_ID,ELEMENT_SET_NO,REV_AT_EPOCH,BSTAR,MEAN_MOTION_DOT,MEAN_MOTION_DDOT
SUOMI NPP,2011-061A,2026-07-10T19:29:48.381792,14.19522097,.0000589,98.7956,132.5276,244.2908,115.8207,0,U,37849,999,76179,.31666E-4,.22E-6,0
YAOGAN-12,2011-066B,2026-07-10T20:39:27.250848,15.26865833,.0010768,97.1138,229.3173,135.3147,224.8962,0,U,37875,999,81565,.13054E-3,.3381E-4,0
BEIDOU-2 M4,2012-018B,2026-07-10T05:02:43.446048,1.86229687,.0012086,55.6367,303.3120,272.7348,87.1429,0,U,38251,999,9637,0,-.69E-6,0
ARIRANG-3 (KOMPSAT-3),2012-025B,2026-07-10T20:18:47.379744,14.62226763,.0006459,98.1182,148.8999,50.1735,310.0034,0,U,38338,999,75480,.52277E-4,.217E-5,0
METOP-B,2012-049A,2026-07-10T20:10:58.888704,14.21445572,.0001047,98.6492,242.8668,283.1215,76.9845,0,U,38771,999,71662,.3833E-4,.4E-6,0
SJ-9A,2012-056A,2026-07-10T19:22:44.867136,14.85523183,.0025583,97.6725,162.9072,176.0622,184.0799,0,U,38860,999,70309,.68339E-4,.541E-5,0
COSMOS 2484 (RODNIK-S 6),2013-001C,2026-07-10T19:28:03.870624,12.42939777,.0025837,82.5003,207.2048,345.3383,14.6945,0,U,39059,999,61149,-.58148E-3,-.71E-6,0
SARAL,2013-009A,2026-07-10T18:47:40.560576,14.32895038,.0001431,98.5554,18.0519,178.2675,181.8514,0,U,39086,999,69898,.35264E-4,.53E-6,0
STRAND-1,2013-009E,2026-07-10T10:46:18.460128,14.37177134,.00091491,98.3931,11.1117,154.2343,205.9301,0,U,39090,999,70040,.73430578E-4,.176E-5,0
BRITE-AUSTRIA,2013-009F,2026-07-09T23:37:17.286240,14.36551135,.0010453,98.4005,9.8568,165.5592,194.5896,0,U,39091,999,70032,.50636952E-4,.106E-5,0
GAOFEN-1,2013-018A,2026-07-10T20:23:12.979392,14.76516381,.0016688,97.9087,263.4355,185.1035,175.0007,0,U,39150,999,71173,.65656E-4,.408E-5,0
NEE-01 PEGASO,2013-018B,2026-07-09T15:21:07.078464,14.93776228,.00138751,98.1250,335.5366,90.6498,269.6310,0,U,39151,999,71405,.1219934E-3,.1233E-4,0
PROBA-V,2013-021A,2026-07-10T09:12:02.223648,14.23602924,.00053781,98.3602,168.8465,71.1313,289.0449,0,U,39159,999,68441,.43640222E-4,.58E-6,0
ARIRANG-5 (KOMPSAT-5),2013-042A,2026-07-10T20:13:54.700608,15.04521627,.0005564,97.6221,18.2117,69.2400,290.9422,0,U,39227,999,70741,.85489E-4,.1137E-4,0
GONETS-M 5,2013-048A,2026-07-10T18:44:37.058208,12.42892697,.0017183,82.4845,328.6727,158.9244,201.2547,0,U,39249,999,58181,.33234E-3,.56E-6,0
GONETS-M 7,2013-048C,2026-07-10T19:46:34.339584,12.42915488,.0017963,82.4912,331.5805,160.0995,200.0789,0,U,39251,999,58177,.17228E-3,.34E-6,0
FENGYUN 3C,2013-052A,2026-07-10T20:39:27.591264,14.15760192,.0013849,98.4994,164.6503,319.2122,40.8015,0,U,39260,999,66191,.31801E-4,.21E-6,0
CASSIOPE,2013-055A,2026-07-10T18:18:41.880672,15.27219864,.0283963,80.9135,38.0430,342.9101,16.2710,0,U,39265,999,67126,.27356E-3,.25507E-3,-.53017E-6
APRIZESAT 7,2013-066A,2026-07-10T16:48:48.109248,14.91613380,.0036922,97.7720,144.5844,131.7258,228.7128,0,U,39416,999,68473,.73716E-4,.692E-5,0
ZACUBE-1 (TSHEPISOSAT),2013-066B,2026-07-10T11:15:35.395488,15.01316108,.00437413,97.8014,153.9218,170.3489,189.8585,0,U,39417,999,68422,.1306034E-3,.165E-4,0
APRIZESAT 8,2013-066K,2026-07-10T06:41:52.543104,14.87691705,.00450896,97.8227,138.4264,208.2637,151.6132,0,U,39425,999,68310,.60493228E-4,.504E-5,0
